start=new Date('2023-06-12T00:00:00.000Z').valueOf();
sats=[{"PERIAPSIS":"546.422","RA_OF_ASC_NODE":"59.7473","MEAN_ANOMALY":"267.3827","ECCENTRICITY":"0.00010430","MEAN_MOTION_DOT":"0.00021088","MEAN_MOTION_DDOT":"0.0000000000000","OBJECT_ID":"2021-018AS","CENTER_NAME":"EARTH","NORAD_CAT_ID":"47827","LAUNCH_DATE":"2021-03-11","DECAY_DATE":null,"CLASSIFICATION_TYPE":"U","SEMIMAJOR_AXIS":"6925.280","INCLINATION":"53.0550","ELEMENT_SET_NO":"999","TLE_LINE1":"1 47827U 21018AS  23162.74919867  .00021088  00000-0  14295-2 0  9997","COUNTRY_CODE":"US","APOAPSIS":"547.867","SITE":"AFETR","REV_AT_EPOCH":"12577","TIME_SYSTEM":"UTC","ARG_OF_PERICENTER":"92.7281","BSTAR":"0.00142950000000","PERIOD":"95.591","MEAN_MOTION":"15.06422476","RCS_SIZE":"LARGE","TLE_LINE2":"2 47827  53.0550  59.7473 0001043  92.7281 267.3827 15.06422476125774","OBJECT_NAME":"STARLINK-2413","GP_ID":"233725510","EPHEMERIS_TYPE":"0","EPOCH":"2023-06-11T17:58:50.765088","REF_FRAME":"TEME","OBJECT_TYPE":"PAYLOAD","MEAN_ELEMENT_THEORY":"SGP4","FILE":"3930737"},{"NORAD_CAT_ID":"47828","LAUNCH_DATE":"2021-03-11","MEAN_MOTION_DDOT":"0.0000000000000","CENTER_NAME":"EARTH","OBJECT_ID":"2021-018AT","ECCENTRICITY":"0.00011550","MEAN_MOTION_DOT":"0.00016390","PERIAPSIS":"546.410","MEAN_ANOMALY":"263.6070","RA_OF_ASC_NODE":"80.6849","TIME_SYSTEM":"UTC","REV_AT_EPOCH":"12506","SITE":"AFETR","COUNTRY_CODE":"US","TLE_LINE1":"1 47828U 21018AT  23162.48562841  .00016390  00000-0  11166-2 0  9999","ELEMENT_SET_NO":"999","APOAPSIS":"548.010","DECAY_DATE":null,"INCLINATION":"53.0541","CLASSIFICATION_TYPE":"U","SEMIMAJOR_AXIS":"6925.345","MEAN_MOTION":"15.06401281","PERIOD":"95.592","BSTAR":"0.00111660000000","ARG_OF_PERICENTER":"96.5051","REF_FRAME":"TEME","FILE":"3930631","MEAN_ELEMENT_THEORY":"SGP4","OBJECT_TYPE":"PAYLOAD","EPHEMERIS_TYPE":"0","EPOCH":"2023-06-11T11:39:18.294624","OBJECT_NAME":"STARLINK-2415","TLE_LINE2":"2 47828  53.0541  80.6849 0001155  96.5051 263.6070 15.06401281125068","GP_ID":"233701569","RCS_SIZE":"LARGE"},{"CLASSIFICATION_TYPE":"U","SEMIMAJOR_AXIS":"6925.320","INCLINATION":"53.0537","DECAY_DATE":null,"APOAPSIS":"547.767","TLE_LINE1":"1 47829U 21018AU  23162.76944560  .00026302  00000-0  17776-2 0  9990","ELEMENT_SET_NO":"999","COUNTRY_CODE":"US","SITE":"AFETR","REV_AT_EPOCH":"12543","TIME_SYSTEM":"UTC","RA_OF_ASC_NODE":"79.4106","MEAN_ANOMALY":"276.5143","PERIAPSIS":"546.603","MEAN_MOTION_DOT":"0.00026302","ECCENTRICITY":"0.00008400","OBJECT_ID":"2021-018AU","CENTER_NAME":"EARTH","MEAN_MOTION_DDOT":"0.0000000000000","LAUNCH_DATE":"2021-03-11","NORAD_CAT_ID":"47829","RCS_SIZE":"LARGE","GP_ID":"233724513","TLE_LINE2":"2 47829  53.0537  79.4106 0000840  83.5941 276.5143 15.06409294125437","OBJECT_NAME":"STARLINK-2416","EPOCH":"2023-06-11T18:28:00.099840","EPHEMERIS_TYPE":"0","OBJECT_TYPE":"PAYLOAD","MEAN_ELEMENT_THEORY":"SGP4","FILE":"3930737","REF_FRAME":"TEME","ARG_OF_PERICENTER":"83.5941","BSTAR":"0.00177760000000","PERIOD":"95.592","MEAN_MOTION":"15.06409294"},{"CENTER_NAME":"EARTH","OBJECT_ID":"2021-018AV","MEAN_MOTION_DDOT":"0.0000000000000","LAUNCH_DATE":"2021-03-11","NORAD_CAT_ID":"47830","MEAN_ANOMALY":"251.9451","RA_OF_ASC_NODE":"79.4283","PERIAPSIS":"546.569","MEAN_MOTION_DOT":"0.00026115","ECCENTRICITY":"0.00008390","REV_AT_EPOCH":"12543","SITE":"AFETR","TIME_SYSTEM":"UTC","INCLINATION":"53.0535","SEMIMAJOR_AXIS":"6925.285","CLASSIFICATION_TYPE":"U","DECAY_DATE":null,"APOAPSIS":"547.731","COUNTRY_CODE":"US","ELEMENT_SET_NO":"999","TLE_LINE1":"1 47830U 21018AV  23162.76575520  .00026115  00000-0  17646-2 0  9996","PERIOD":"95.591","MEAN_MOTION":"15.06420824","BSTAR":"0.00176460000000","ARG_OF_PERICENTER":"108.1629","EPOCH":"2023-06-11T18:22:41.249280","EPHEMERIS_TYPE":"0","FILE":"3930737","MEAN_ELEMENT_THEORY":"SGP4","OBJECT_TYPE":"PAYLOAD","REF_FRAME":"TEME","RCS_SIZE":"LARGE","GP_ID":"233725261","TLE_LINE2":"2 47830  53.0535  79.4283 0000839 108.1629 251.9451 15.06420824125439","OBJECT_NAME":"STARLINK-2419"},{"MEAN_MOTION_DOT":"0.00026074","ECCENTRICITY":"0.00008270","MEAN_ANOMALY":"298.1638","RA_OF_ASC_NODE":"54.7273","PERIAPSIS":"546.583","LAUNCH_DATE":"2021-03-11","NORAD_CAT_ID":"47831","CENTER_NAME":"EARTH","OBJECT_ID":"2021-018AW","MEAN_MOTION_DDOT":"0.0000000000000","APOAPSIS":"547.728","COUNTRY_CODE":"US","ELEMENT_SET_NO":"999","TLE_LINE1":"1 47831U 21018AW  23162.69987777  .00026074  00000-0  17620-2 0  9996","INCLINATION":"53.0544","CLASSIFICATION_TYPE":"U","SEMIMAJOR_AXIS":"6925.290","DECAY_DATE":null,"TIME_SYSTEM":"UTC","REV_AT_EPOCH":"12583","SITE":"AFETR","BSTAR":"0.00176200000000","ARG_OF_PERICENTER":"61.9434","MEAN_MOTION":"15.06419025","PERIOD":"95.591","GP_ID":"233726011","TLE_LINE2":"2 47831  53.0544  54.7273 0000827  61.9434 298.1638 15.06419025125837","OBJECT_NAME":"STARLINK-2420","RCS_SIZE":"LARGE","MEAN_ELEMENT_THEORY":"SGP4","FILE":"3930737","OBJECT_TYPE":"PAYLOAD","REF_FRAME":"TEME","EPOCH":"2023-06-11T16:47:49.439328","EPHEMERIS_TYPE":"0"},{"MEAN_MOTION_DDOT":"0.0000000000000","CENTER_NAME":"EARTH","OBJECT_ID":"2021-018AX","NORAD_CAT_ID":"47832","LAUNCH_DATE":"2021-03-11","PERIAPSIS":"546.413","MEAN_ANOMALY":"262.8757","RA_OF_ASC_NODE":"72.3006","ECCENTRICITY":"0.00012120","MEAN_MOTION_DOT":"0.00004863","REV_AT_EPOCH":"12548","SITE":"AFETR","TIME_SYSTEM":"UTC","DECAY_DATE":null,"INCLINATION":"53.0547","SEMIMAJOR_AXIS":"6925.387","CLASSIFICATION_TYPE":"U","COUNTRY_CODE":"US","TLE_LINE1":"1 47832U 21018AX  23162.12532253  .00004863  00000-0  34523-3 0  9994","ELEMENT_SET_NO":"999","APOAPSIS":"548.092","PERIOD":"95.593","MEAN_MOTION":"15.06387314","BSTAR":"0.00034523000000","ARG_OF_PERICENTER":"97.2370","EPHEMERIS_TYPE":"0","EPOCH":"2023-06-11T03:00:27.866592","REF_FRAME":"TEME","FILE":"3930529","MEAN_ELEMENT_THEORY":"SGP4","OBJECT_TYPE":"PAYLOAD","RCS_SIZE":"LARGE","OBJECT_NAME":"STARLINK-2422","TLE_LINE2":"2 47832  53.0547  72.3006 0001212  97.2370 262.8757 15.06387314125487","GP_ID":"233692865"},{"EPOCH":"2023-06-11T17:57:29.079936","EPHEMERIS_TYPE":"0","MEAN_ELEMENT_THEORY":"SGP4","FILE":"3930737","OBJECT_TYPE":"PAYLOAD","REF_FRAME":"TEME","RCS_SIZE":"LARGE","GP_ID":"233725014","TLE_LINE2":"2 47833  53.0545  69.5093 0001087  78.2334 281.8777 15.06416854125631","OBJECT_NAME":"STARLINK-2423","PERIOD":"95.591","MEAN_MOTION":"15.06416854","BSTAR":"0.00176580000000","ARG_OF_PERICENTER":"78.2334","REV_AT_EPOCH":"12563","SITE":"AFETR","TIME_SYSTEM":"UTC","INCLINATION":"53.0545","CLASSIFICATION_TYPE":"U","SEMIMAJOR_AXIS":"6925.297","DECAY_DATE":null,"APOAPSIS":"547.915","COUNTRY_CODE":"US","TLE_LINE1":"1 47833U 21018AY  23162.74825324  .00026130  00000-0  17658-2 0  9997","ELEMENT_SET_NO":"999","CENTER_NAME":"EARTH","OBJECT_ID":"2021-018AY","MEAN_MOTION_DDOT":"0.0000000000000","LAUNCH_DATE":"2021-03-11","NORAD_CAT_ID":"47833","MEAN_ANOMALY":"281.8777","RA_OF_ASC_NODE":"69.5093","PERIAPSIS":"546.409","MEAN_MOTION_DOT":"0.00026130","ECCENTRICITY":"0.00010870"},{"SITE":"AFETR","REV_AT_EPOCH":"12563","TIME_SYSTEM":"UTC","CLASSIFICATION_TYPE":"U","SEMIMAJOR_AXIS":"6925.323","INCLINATION":"53.0559","DECAY_DATE":null,"APOAPSIS":"547.919","TLE_LINE1":"1 47834U 21018AZ  23162.75930832  .00019133  00000-0  12996-2 0  9995","ELEMENT_SET_NO":"999","COUNTRY_CODE":"US","OBJECT_ID":"2021-018AZ","CENTER_NAME":"EARTH","MEAN_MOTION_DDOT":"0.0000000000000","LAUNCH_DATE":"2021-03-11","NORAD_CAT_ID":"47834","RA_OF_ASC_NODE":"69.4593","MEAN_ANOMALY":"274.8605","PERIAPSIS":"546.456","MEAN_MOTION_DOT":"0.00019133","ECCENTRICITY":"0.00010560","EPOCH":"2023-06-11T18:13:24.238848","EPHEMERIS_TYPE":"0","OBJECT_TYPE":"PAYLOAD","FILE":"3930737","MEAN_ELEMENT_THEORY":"SGP4","REF_FRAME":"TEME","RCS_SIZE":"LARGE","GP_ID":"233725762","TLE_LINE2":"2 47834  53.0559  69.4593 0001056  85.2504 274.8605 15.06408439125636","OBJECT_NAME":"STARLINK-2424","PERIOD":"95.592","MEAN_MOTION":"15.06408439","ARG_OF_PERICENTER":"85.2504","BSTAR":"0.00129960000000"},{"BSTAR":"0.00143610000000","ARG_OF_PERICENTER":"104.2826","PERIOD":"95.591","MEAN_MOTION":"15.06422933","RCS_SIZE":"LARGE","GP_ID":"233725511","OBJECT_NAME":"STARLINK-2425","TLE_LINE2":"2 47835  53.0543  74.4572 0000720 104.2826 255.8243 15.06422933125507","EPOCH":"2023-06-11T18:52:33.835872","EPHEMERIS_TYPE":"0","FILE":"3930737","MEAN_ELEMENT_THEORY":"SGP4","OBJECT_TYPE":"PAYLOAD","REF_FRAME":"TEME","MEAN_ANOMALY":"255.8243","RA_OF_ASC_NODE":"74.4572","PERIAPSIS":"546.645","MEAN_MOTION_DOT":"0.00021187","ECCENTRICITY":"0.00007200","CENTER_NAME":"EARTH","OBJECT_ID":"2021-018BA","MEAN_MOTION_DDOT":"0.0000000000000","LAUNCH_DATE":"2021-03-11","NORAD_CAT_ID":"47835","INCLINATION":"53.0543","CLASSIFICATION_TYPE":"U","SEMIMAJOR_AXIS":"6925.278","DECAY_DATE":null,"APOAPSIS":"547.642","COUNTRY_CODE":"US","ELEMENT_SET_NO":"999","TLE_LINE1":"1 47835U 21018BA  23162.78650273  .00021187  00000-0  14361-2 0  9997","REV_AT_EPOCH":"12550","SITE":"AFETR","TIME_SYSTEM":"UTC"},{"NORAD_CAT_ID":"47836","LAUNCH_DATE":"2021-03-11","MEAN_MOTION_DDOT":"0.0000000000000","OBJECT_ID":"2021-018BB","CENTER_NAME":"EARTH","ECCENTRICITY":"0.00013360","MEAN_MOTION_DOT":"0.00023895","PERIAPSIS":"546.252","RA_OF_ASC_NODE":"69.1633","MEAN_ANOMALY":"271.4006","TIME_SYSTEM":"UTC","SITE":"AFETR","REV_AT_EPOCH":"12559","ELEMENT_SET_NO":"999","TLE_LINE1":"1 47836U 21018BB  23162.84409451  .00023895  00000-0  16171-2 0  9994","COUNTRY_CODE":"US","APOAPSIS":"548.103","DECAY_DATE":null,"SEMIMAJOR_AXIS":"6925.313","CLASSIFICATION_TYPE":"U","INCLINATION":"53.0546","MEAN_MOTION":"15.06411748","PERIOD":"95.591","ARG_OF_PERICENTER":"88.7136","BSTAR":"0.00161710000000","REF_FRAME":"TEME","OBJECT_TYPE":"PAYLOAD","FILE":"3930737","MEAN_ELEMENT_THEORY":"SGP4","EPHEMERIS_TYPE":"0","EPOCH":"2023-06-11T20:15:29.765664","OBJECT_NAME":"STARLINK-2426","TLE_LINE2":"2 47836  53.0546  69.1633 0001336  88.7136 271.4006 15.06411748125596","GP_ID":"233724764","RCS_SIZE":"LARGE"}];
